<?xml version="1.0" encoding="UTF-8"?>
<kml xmlns="http://www.opengis.net/kml/2.2">
<Document>
<Placemark>  <name> BIKF </name>
  <Point>
    <coordinates>
    -22.605555555555558,63.985
    </coordinates>
   </Point>
</Placemark>
<Placemark>  <name> CYUL </name>
  <Point>
    <coordinates>
    -73.74138888888889,45.46805555555556
    </coordinates>
   </Point>
</Placemark>
<Placemark>  <name> CYYZ </name>
  <Point>
    <coordinates>
    -79.63055555555555,43.67722222222222
    </coordinates>
   </Point>
</Placemark>
<Placemark>  <name> DAAG </name>
  <Point>
    <coordinates>
    3.2144444444444447,36.693888888888885
    </coordinates>
   </Point>
</Placemark>
<Placemark>  <name> DTTA </name>
  <Point>
    <coordinates>
    10.226944444444445,36.85111111111111
    </coordinates>
   </Point>
</Placemark>
<Placemark>  <name> EBAW </name>
  <Point>
    <coordinates>
    4.460277777777778,51.18944444444444
    </coordinates>
   </Point>
</Placemark>
<Placemark>  <name> EBBR </name>
  <Point>
    <coordinates>
    4.484444444444445,50.90138888888889
    </coordinates>
   </Point>
</Placemark>
<Placemark>  <name> EBLG </name>
  <Point>
    <coordinates>
    5.442777777777778,50.63638888888889
    </coordinates>
   </Point>
</Placemark>
<Placemark>  <name> EBOS </name>
  <Point>
    <coordinates>
    2.8622222222222224,51.19888888888889
    </coordinates>
   </Point>
</Placemark>
<Placemark>  <name> EDDB </name>
  <Point>
    <coordinates>
    13.500555555555556,52.36222222222222
    </coordinates>
   </Point>
</Placemark>
<Placemark>  <name> EDDF </name>
  <Point>
    <coordinates>
    8.570555555555556,50.03333333333333
    </coordinates>
   </Point>
</Placemark>
<Placemark>  <name> EDDH </name>
  <Point>
    <coordinates>
    9.988333333333333,53.63027777777778
    </coordinates>
   </Point>
</Placemark>
<Placemark>  <name> EDDK </name>
  <Point>
    <coordinates>
    7.142777777777778,50.865833333333335
    </coordinates>
   </Point>
</Placemark>
<Placemark>  <name> EDDL </name>
  <Point>
    <coordinates>
    6.7572222222222225,51.280833333333334
    </coordinates>
   </Point>
</Placemark>
<Placemark>  <name> EDDM </name>
  <Point>
    <coordinates>
    11.786111111111111,48.35388888888889
    </coordinates>
   </Point>
</Placemark>
<Placemark>  <name> EDDN </name>
  <Point>
    <coordinates>
    11.078055555555554,49.49861111111111
    </coordinates>
   </Point>
</Placemark>
<Placemark>  <name> EDDP </name>
  <Point>
    <coordinates>
    12.236388888888888,51.42388888888889
    </coordinates>
   </Point>
</Placemark>
<Placemark>  <name> EDDS </name>
  <Point>
    <coordinates>
    9.221944444444444,48.69
    </coordinates>
   </Point>
</Placemark>
<Placemark>  <name> EDDT </name>
  <Point>
    <coordinates>
    13.287777777777778,52.55972222222222
    </coordinates>
   </Point>
</Placemark>
<Placemark>  <name> EDDV </name>
  <Point>
    <coordinates>
    9.68361111111111,52.46027777777778
    </coordinates>
   </Point>
</Placemark>
<Placemark>  <name> EETN </name>
  <Point>
    <coordinates>
    24.8325,59.413333333333334
    </coordinates>
   </Point>
</Placemark>
<Placemark>  <name> EFHK </name>
  <Point>
    <coordinates>
    24.96333333333333,60.31722222222223
    </coordinates>
   </Point>
</Placemark>
<Placemark>  <name> EGAA </name>
  <Point>
    <coordinates>
    -6.215833333333333,54.6575
    </coordinates>
   </Point>
</Placemark>
<Placemark>  <name> EGBB </name>
  <Point>
    <coordinates>
    -1.7480555555555557,52.45388888888889
    </coordinates>
   </Point>
</Placemark>
<Placemark>  <name> EGCC </name>
  <Point>
    <coordinates>
    -2.275,53.35388888888889
    </coordinates>
   </Point>
</Placemark>
<Placemark>  <name> EGFF </name>
  <Point>
    <coordinates>
    -3.3433333333333333,51.39666666666667
    </coordinates>
   </Point>
</Placemark>
<Placemark>  <name> EGGD </name>
  <Point>
    <coordinates>
    -2.7191666666666667,51.382777777777775
    </coordinates>
   </Point>
</Placemark>
<Placemark>  <name> EGGP </name>
  <Point>
    <coordinates>
    -2.8497222222222223,53.33361111111111
    </coordinates>
   </Point>
</Placemark>
<Placemark>  <name> EGGW </name>
  <Point>
    <coordinates>
    -0.3683333333333333,51.874722222222225
    </coordinates>
   </Point>
</Placemark>
<Placemark>  <name> EGHI </name>
  <Point>
    <coordinates>
    -1.3566666666666667,50.95027777777778
    </coordinates>
   </Point>
</Placemark>
<Placemark>  <name> EGKK </name>
  <Point>
    <coordinates>
    -0.19027777777777777,51.14805555555556
    </coordinates>
   </Point>
</Placemark>
<Placemark>  <name> EGLL </name>
  <Point>
    <coordinates>
    -0.4613888888888889,51.4775
    </coordinates>
   </Point>
</Placemark>
<Placemark>  <name> EGMC </name>
  <Point>
    <coordinates>
    0.6933333333333334,51.57027777777778
    </coordinates>
   </Point>
</Placemark>
<Placemark>  <name> EGNM </name>
  <Point>
    <coordinates>
    -1.6608333333333332,53.86611111111111
    </coordinates>
   </Point>
</Placemark>
<Placemark>  <name> EGNT </name>
  <Point>
    <coordinates>
    -1.6897222222222223,55.03805555555555
    </coordinates>
   </Point>
</Placemark>
<Placemark>  <name> EGNX </name>
  <Point>
    <coordinates>
    -1.3277777777777777,52.83111111111111
    </coordinates>
   </Point>
</Placemark>
<Placemark>  <name> EGPH </name>
  <Point>
    <coordinates>
    -3.3725,55.95
    </coordinates>
   </Point>
</Placemark>
<Placemark>  <name> EGPK </name>
  <Point>
    <coordinates>
    -4.594444444444444,55.50944444444445
    </coordinates>
   </Point>
</Placemark>
<Placemark>  <name> EGSS </name>
  <Point>
    <coordinates>
    0.23500000000000001,51.885
    </coordinates>
   </Point>
</Placemark>
<Placemark>  <name> EHAM </name>
  <Point>
    <coordinates>
    4.764166666666667,52.308055555555555
    </coordinates>
   </Point>
</Placemark>
<Placemark>  <name> EHEH </name>
  <Point>
    <coordinates>
    5.374444444444444,51.45
    </coordinates>
   </Point>
</Placemark>
<Placemark>  <name> EHRD </name>
  <Point>
    <coordinates>
    4.437222222222222,51.956944444444446
    </coordinates>
   </Point>
</Placemark>
<Placemark>  <name> EIDW </name>
  <Point>
    <coordinates>
    -6.27,53.421388888888885
    </coordinates>
   </Point>
</Placemark>
<Placemark>  <name> EKBI </name>
  <Point>
    <coordinates>
    9.151666666666667,55.74027777777778
    </coordinates>
   </Point>
</Placemark>
<Placemark>  <name> EKCH </name>
  <Point>
    <coordinates>
    12.65611111111111,55.61805555555556
    </coordinates>
   </Point>
</Placemark>
<Placemark>  <name> ELLX </name>
  <Point>
    <coordinates>
    6.204444444444444,49.623333333333335
    </coordinates>
   </Point>
</Placemark>
<Placemark>  <name> ENBR </name>
  <Point>
    <coordinates>
    5.218055555555556,60.29361111111111
    </coordinates>
   </Point>
</Placemark>
<Placemark>  <name> ENGM </name>
  <Point>
    <coordinates>
    11.08388888888889,60.20277777777778
    </coordinates>
   </Point>
</Placemark>
<Placemark>  <name> EPKK </name>
  <Point>
    <coordinates>
    19.784722222222225,50.07777777777778
    </coordinates>
   </Point>
</Placemark>
<Placemark>  <name> EPKT </name>
  <Point>
    <coordinates>
    19.08,50.47416666666667
    </coordinates>
   </Point>
</Placemark>
<Placemark>  <name> EPWA </name>
  <Point>
    <coordinates>
    20.96722222222222,52.16583333333333
    </coordinates>
   </Point>
</Placemark>
<Placemark>  <name> ESGG </name>
  <Point>
    <coordinates>
    12.29111111111111,57.66
    </coordinates>
   </Point>
</Placemark>
<Placemark>  <name> ESKN </name>
  <Point>
    <coordinates>
    16.90361111111111,58.78861111111111
    </coordinates>
   </Point>
</Placemark>
<Placemark>  <name> ESSA </name>
  <Point>
    <coordinates>
    17.91861111111111,59.651944444444446
    </coordinates>
   </Point>
</Placemark>
<Placemark>  <name> ETNL </name>
  <Point>
    <coordinates>
    12.278333333333334,53.91916666666666
    </coordinates>
   </Point>
</Placemark>
<Placemark>  <name> EVRA </name>
  <Point>
    <coordinates>
    23.97111111111111,56.92361111111111
    </coordinates>
   </Point>
</Placemark>
<Placemark>  <name> EYVI </name>
  <Point>
    <coordinates>
    25.28777777777778,54.636944444444445
    </coordinates>
   </Point>
</Placemark>
<Placemark>  <name> GCFV </name>
  <Point>
    <coordinates>
    -13.863888888888889,28.452777777777776
    </coordinates>
   </Point>
</Placemark>
<Placemark>  <name> GCLP </name>
  <Point>
    <coordinates>
    -15.386666666666667,27.931944444444447
    </coordinates>
   </Point>
</Placemark>
<Placemark>  <name> GCRR </name>
  <Point>
    <coordinates>
    -13.605277777777777,28.945555555555554
    </coordinates>
   </Point>
</Placemark>
<Placemark>  <name> GCXO </name>
  <Point>
    <coordinates>
    -16.341666666666665,28.482777777777777
    </coordinates>
   </Point>
</Placemark>
<Placemark>  <name> GMFF </name>
  <Point>
    <coordinates>
    -4.977777777777778,33.92722222222222
    </coordinates>
   </Point>
</Placemark>
<Placemark>  <name> GMMN </name>
  <Point>
    <coordinates>
    -7.581666666666666,33.36416666666667
    </coordinates>
   </Point>
</Placemark>
<Placemark>  <name> GMMX </name>
  <Point>
    <coordinates>
    -8.040833333333333,31.608611111111113
    </coordinates>
   </Point>
</Placemark>
<Placemark>  <name> GMTT </name>
  <Point>
    <coordinates>
    -5.921111111111111,35.73166666666667
    </coordinates>
   </Point>
</Placemark>
<Placemark>  <name> HECA </name>
  <Point>
    <coordinates>
    31.413888888888888,30.11138888888889
    </coordinates>
   </Point>
</Placemark>
<Placemark>  <name> HTDA </name>
  <Point>
    <coordinates>
    39.20333333333333,-6.875555555555556
    </coordinates>
   </Point>
</Placemark>
<Placemark>  <name> KATL </name>
  <Point>
    <coordinates>
    -84.43333333333334,33.63333333333333
    </coordinates>
   </Point>
</Placemark>
<Placemark>  <name> KCLT </name>
  <Point>
    <coordinates>
    -80.95,35.21666666666667
    </coordinates>
   </Point>
</Placemark>
<Placemark>  <name> KEWR </name>
  <Point>
    <coordinates>
    -74.16833333333334,40.696666666666665
    </coordinates>
   </Point>
</Placemark>
<Placemark>  <name> KIAD </name>
  <Point>
    <coordinates>
    -77.45666666666666,38.94499999999999
    </coordinates>
   </Point>
</Placemark>
<Placemark>  <name> KJFK </name>
  <Point>
    <coordinates>
    -73.77833333333334,40.640277777777776
    </coordinates>
   </Point>
</Placemark>
<Placemark>  <name> KMIA </name>
  <Point>
    <coordinates>
    -80.28333333333333,25.8
    </coordinates>
   </Point>
</Placemark>
<Placemark>  <name> KPHL </name>
  <Point>
    <coordinates>
    -75.245,39.87
    </coordinates>
   </Point>
</Placemark>
<Placemark>  <name> KUGN </name>
  <Point>
    <coordinates>
    -87.86833333333333,42.42166666666667
    </coordinates>
   </Point>
</Placemark>
<Placemark>  <name> LBSF </name>
  <Point>
    <coordinates>
    23.40833333333333,42.69499999999999
    </coordinates>
   </Point>
</Placemark>
<Placemark>  <name> LCLK </name>
  <Point>
    <coordinates>
    33.63027777777778,34.87888888888889
    </coordinates>
   </Point>
</Placemark>
<Placemark>  <name> LDDU </name>
  <Point>
    <coordinates>
    18.26833333333333,42.561388888888885
    </coordinates>
   </Point>
</Placemark>
<Placemark>  <name> LDSP </name>
  <Point>
    <coordinates>
    16.298055555555557,43.538888888888884
    </coordinates>
   </Point>
</Placemark>
<Placemark>  <name> LDZA </name>
  <Point>
    <coordinates>
    16.06888888888889,45.74305555555556
    </coordinates>
   </Point>
</Placemark>
<Placemark>  <name> LEAL </name>
  <Point>
    <coordinates>
    -0.5580555555555556,38.282222222222224
    </coordinates>
   </Point>
</Placemark>
<Placemark>  <name> LEAM </name>
  <Point>
    <coordinates>
    -2.37,36.84388888888889
    </coordinates>
   </Point>
</Placemark>
<Placemark>  <name> LEAS </name>
  <Point>
    <coordinates>
    -6.034722222222222,43.56361111111111
    </coordinates>
   </Point>
</Placemark>
<Placemark>  <name> LEBB </name>
  <Point>
    <coordinates>
    -2.9105555555555553,43.301111111111105
    </coordinates>
   </Point>
</Placemark>
<Placemark>  <name> LEBL </name>
  <Point>
    <coordinates>
    2.0783333333333336,41.29694444444444
    </coordinates>
   </Point>
</Placemark>
<Placemark>  <name> LEBZ </name>
  <Point>
    <coordinates>
    -6.8213888888888885,38.89138888888889
    </coordinates>
   </Point>
</Placemark>
<Placemark>  <name> LECO </name>
  <Point>
    <coordinates>
    -8.377222222222223,43.301944444444445
    </coordinates>
   </Point>
</Placemark>
<Placemark>  <name> LEGE </name>
  <Point>
    <coordinates>
    2.7605555555555554,41.90083333333333
    </coordinates>
   </Point>
</Placemark>
<Placemark>  <name> LEGR </name>
  <Point>
    <coordinates>
    -3.777222222222222,37.18861111111111
    </coordinates>
   </Point>
</Placemark>
<Placemark>  <name> LEIB </name>
  <Point>
    <coordinates>
    1.3730555555555557,38.87277777777778
    </coordinates>
   </Point>
</Placemark>
<Placemark>  <name> LEJR </name>
  <Point>
    <coordinates>
    -6.06,36.74472222222222
    </coordinates>
   </Point>
</Placemark>
<Placemark>  <name> LELN </name>
  <Point>
    <coordinates>
    -5.6561111111111115,42.58861111111111
    </coordinates>
   </Point>
</Placemark>
<Placemark>  <name> LEMD </name>
  <Point>
    <coordinates>
    -3.560833333333333,40.47222222222222
    </coordinates>
   </Point>
</Placemark>
<Placemark>  <name> LEMG </name>
  <Point>
    <coordinates>
    -4.4991666666666665,36.675
    </coordinates>
   </Point>
</Placemark>
<Placemark>  <name> LEMH </name>
  <Point>
    <coordinates>
    4.2186111111111115,39.862500000000004
    </coordinates>
   </Point>
</Placemark>
<Placemark>  <name> LEPA </name>
  <Point>
    <coordinates>
    2.738888888888889,39.55166666666666
    </coordinates>
   </Point>
</Placemark>
<Placemark>  <name> LESO </name>
  <Point>
    <coordinates>
    -1.7905555555555555,43.35638888888889
    </coordinates>
   </Point>
</Placemark>
<Placemark>  <name> LEST </name>
  <Point>
    <coordinates>
    -8.415277777777778,42.896388888888886
    </coordinates>
   </Point>
</Placemark>
<Placemark>  <name> LEVC </name>
  <Point>
    <coordinates>
    -0.4816666666666667,39.489444444444445
    </coordinates>
   </Point>
</Placemark>
<Placemark>  <name> LEVD </name>
  <Point>
    <coordinates>
    -4.851944444444444,41.70611111111111
    </coordinates>
   </Point>
</Placemark>
<Placemark>  <name> LEVX </name>
  <Point>
    <coordinates>
    -8.627500000000001,42.22916666666667
    </coordinates>
   </Point>
</Placemark>
<Placemark>  <name> LEXJ </name>
  <Point>
    <coordinates>
    -3.82,43.426944444444445
    </coordinates>
   </Point>
</Placemark>
<Placemark>  <name> LEZL </name>
  <Point>
    <coordinates>
    -5.898888888888888,37.418055555555554
    </coordinates>
   </Point>
</Placemark>
<Placemark>  <name> LFBD </name>
  <Point>
    <coordinates>
    -0.7152777777777777,44.828611111111115
    </coordinates>
   </Point>
</Placemark>
<Placemark>  <name> LFBT </name>
  <Point>
    <coordinates>
    -0.002777777777777778,43.18555555555555
    </coordinates>
   </Point>
</Placemark>
<Placemark>  <name> LFCK </name>
  <Point>
    <coordinates>
    2.2905555555555552,43.555
    </coordinates>
   </Point>
</Placemark>
<Placemark>  <name> LFLL </name>
  <Point>
    <coordinates>
    5.0811111111111105,45.72555555555556
    </coordinates>
   </Point>
</Placemark>
<Placemark>  <name> LFMD </name>
  <Point>
    <coordinates>
    6.954166666666667,43.546388888888885
    </coordinates>
   </Point>
</Placemark>
<Placemark>  <name> LFML </name>
  <Point>
    <coordinates>
    5.215,43.43666666666666
    </coordinates>
   </Point>
</Placemark>
<Placemark>  <name> LFMN </name>
  <Point>
    <coordinates>
    7.215,43.665277777777774
    </coordinates>
   </Point>
</Placemark>
<Placemark>  <name> LFOB </name>
  <Point>
    <coordinates>
    2.112777777777778,49.45444444444445
    </coordinates>
   </Point>
</Placemark>
<Placemark>  <name> LFPG </name>
  <Point>
    <coordinates>
    2.5477777777777777,49.00972222222222
    </coordinates>
   </Point>
</Placemark>
<Placemark>  <name> LFPO </name>
  <Point>
    <coordinates>
    2.3794444444444447,48.723333333333336
    </coordinates>
   </Point>
</Placemark>
<Placemark>  <name> LFQQ </name>
  <Point>
    <coordinates>
    3.0869444444444447,50.56333333333333
    </coordinates>
   </Point>
</Placemark>
<Placemark>  <name> LFRN </name>
  <Point>
    <coordinates>
    -1.7322222222222223,48.07194444444445
    </coordinates>
   </Point>
</Placemark>
<Placemark>  <name> LFRS </name>
  <Point>
    <coordinates>
    -1.607777777777778,47.15694444444444
    </coordinates>
   </Point>
</Placemark>
<Placemark>  <name> LFSB </name>
  <Point>
    <coordinates>
    7.529166666666667,47.59
    </coordinates>
   </Point>
</Placemark>
<Placemark>  <name> LFST </name>
  <Point>
    <coordinates>
    7.634444444444444,48.54194444444444
    </coordinates>
   </Point>
</Placemark>
<Placemark>  <name> LGAV </name>
  <Point>
    <coordinates>
    23.944444444444446,37.93666666666666
    </coordinates>
   </Point>
</Placemark>
<Placemark>  <name> LGIR </name>
  <Point>
    <coordinates>
    25.18027777777778,35.33972222222222
    </coordinates>
   </Point>
</Placemark>
<Placemark>  <name> LGKR </name>
  <Point>
    <coordinates>
    19.91222222222222,39.60194444444445
    </coordinates>
   </Point>
</Placemark>
<Placemark>  <name> LGMK </name>
  <Point>
    <coordinates>
    25.34722222222222,37.43722222222222
    </coordinates>
   </Point>
</Placemark>
<Placemark>  <name> LGSR </name>
  <Point>
    <coordinates>
    25.479166666666664,36.399166666666666
    </coordinates>
   </Point>
</Placemark>
<Placemark>  <name> LGTS </name>
  <Point>
    <coordinates>
    22.97083333333333,40.51972222222222
    </coordinates>
   </Point>
</Placemark>
<Placemark>  <name> LHBP </name>
  <Point>
    <coordinates>
    19.261944444444445,47.43944444444444
    </coordinates>
   </Point>
</Placemark>
<Placemark>  <name> LIBD </name>
  <Point>
    <coordinates>
    16.765,41.13805555555555
    </coordinates>
   </Point>
</Placemark>
<Placemark>  <name> LICJ </name>
  <Point>
    <coordinates>
    13.099444444444446,38.18194444444444
    </coordinates>
   </Point>
</Placemark>
<Placemark>  <name> LIEE </name>
  <Point>
    <coordinates>
    9.056111111111111,39.24722222222222
    </coordinates>
   </Point>
</Placemark>
<Placemark>  <name> LIEO </name>
  <Point>
    <coordinates>
    9.517777777777779,40.89861111111111
    </coordinates>
   </Point>
</Placemark>
<Placemark>  <name> LIMC </name>
  <Point>
    <coordinates>
    8.723055555555556,45.63
    </coordinates>
   </Point>
</Placemark>
<Placemark>  <name> LIME </name>
  <Point>
    <coordinates>
    9.700277777777776,45.66888888888889
    </coordinates>
   </Point>
</Placemark>
<Placemark>  <name> LIMF </name>
  <Point>
    <coordinates>
    7.649444444444444,45.2025
    </coordinates>
   </Point>
</Placemark>
<Placemark>  <name> LIML </name>
  <Point>
    <coordinates>
    9.278333333333334,45.44944444444444
    </coordinates>
   </Point>
</Placemark>
<Placemark>  <name> LIPE </name>
  <Point>
    <coordinates>
    11.296944444444444,44.530833333333334
    </coordinates>
   </Point>
</Placemark>
<Placemark>  <name> LIPH </name>
  <Point>
    <coordinates>
    12.197777777777778,45.65083333333333
    </coordinates>
   </Point>
</Placemark>
<Placemark>  <name> LIPX </name>
  <Point>
    <coordinates>
    10.887777777777778,45.396388888888886
    </coordinates>
   </Point>
</Placemark>
<Placemark>  <name> LIPZ </name>
  <Point>
    <coordinates>
    12.351944444444444,45.50527777777778
    </coordinates>
   </Point>
</Placemark>
<Placemark>  <name> LIRF </name>
  <Point>
    <coordinates>
    12.238888888888889,41.80027777777777
    </coordinates>
   </Point>
</Placemark>
<Placemark>  <name> LIRN </name>
  <Point>
    <coordinates>
    14.290833333333333,40.88444444444444
    </coordinates>
   </Point>
</Placemark>
<Placemark>  <name> LIRP </name>
  <Point>
    <coordinates>
    10.395555555555555,43.68277777777777
    </coordinates>
   </Point>
</Placemark>
<Placemark>  <name> LIRQ </name>
  <Point>
    <coordinates>
    11.202777777777778,43.808611111111105
    </coordinates>
   </Point>
</Placemark>
<Placemark>  <name> LKPR </name>
  <Point>
    <coordinates>
    14.26,50.100833333333334
    </coordinates>
   </Point>
</Placemark>
<Placemark>  <name> LLBG </name>
  <Point>
    <coordinates>
    34.885555555555555,32.00944444444445
    </coordinates>
   </Point>
</Placemark>
<Placemark>  <name> LMML </name>
  <Point>
    <coordinates>
    14.477500000000001,35.8575
    </coordinates>
   </Point>
</Placemark>
<Placemark>  <name> LOWW </name>
  <Point>
    <coordinates>
    16.56972222222222,48.11027777777778
    </coordinates>
   </Point>
</Placemark>
<Placemark>  <name> LPPR </name>
  <Point>
    <coordinates>
    -8.678055555555554,41.23555555555556
    </coordinates>
   </Point>
</Placemark>
<Placemark>  <name> LPPT </name>
  <Point>
    <coordinates>
    -9.134166666666665,38.774166666666666
    </coordinates>
   </Point>
</Placemark>
<Placemark>  <name> LRCL </name>
  <Point>
    <coordinates>
    23.692222222222224,46.78916666666667
    </coordinates>
   </Point>
</Placemark>
<Placemark>  <name> LROP </name>
  <Point>
    <coordinates>
    26.084999999999997,44.571111111111115
    </coordinates>
   </Point>
</Placemark>
<Placemark>  <name> LSGG </name>
  <Point>
    <coordinates>
    6.109444444444444,46.23833333333334
    </coordinates>
   </Point>
</Placemark>
<Placemark>  <name> LSZG </name>
  <Point>
    <coordinates>
    7.416388888888889,47.18138888888889
    </coordinates>
   </Point>
</Placemark>
<Placemark>  <name> LSZH </name>
  <Point>
    <coordinates>
    8.548055555555555,47.45805555555556
    </coordinates>
   </Point>
</Placemark>
<Placemark>  <name> LTBA </name>
  <Point>
    <coordinates>
    28.81416666666667,40.976111111111116
    </coordinates>
   </Point>
</Placemark>
<Placemark>  <name> LTFJ </name>
  <Point>
    <coordinates>
    29.309166666666666,40.89833333333333
    </coordinates>
   </Point>
</Placemark>
<Placemark>  <name> LUKK </name>
  <Point>
    <coordinates>
    28.930833333333336,46.92777777777778
    </coordinates>
   </Point>
</Placemark>
<Placemark>  <name> LWSK </name>
  <Point>
    <coordinates>
    21.62138888888889,41.961666666666666
    </coordinates>
   </Point>
</Placemark>
<Placemark>  <name> LYBE </name>
  <Point>
    <coordinates>
    20.306944444444444,44.81944444444445
    </coordinates>
   </Point>
</Placemark>
<Placemark>  <name> LYTV </name>
  <Point>
    <coordinates>
    18.723333333333333,42.40472222222222
    </coordinates>
   </Point>
</Placemark>
<Placemark>  <name> OLBA </name>
  <Point>
    <coordinates>
    35.49,33.81916666666667
    </coordinates>
   </Point>
</Placemark>
<Placemark>  <name> OMAA </name>
  <Point>
    <coordinates>
    54.65,24.433333333333334
    </coordinates>
   </Point>
</Placemark>
<Placemark>  <name> OMDB </name>
  <Point>
    <coordinates>
    55.36,25.249166666666667
    </coordinates>
   </Point>
</Placemark>
<Placemark>  <name> OTHH </name>
  <Point>
    <coordinates>
    51.608333333333334,25.274444444444445
    </coordinates>
   </Point>
</Placemark>
<Placemark>  <name> SAEZ </name>
  <Point>
    <coordinates>
    -58.53583333333333,-34.82222222222222
    </coordinates>
   </Point>
</Placemark>
<Placemark>  <name> SBGR </name>
  <Point>
    <coordinates>
    -46.47,-23.433333333333334
    </coordinates>
   </Point>
</Placemark>
<Placemark>  <name> SKBO </name>
  <Point>
    <coordinates>
    -74.15,4.7
    </coordinates>
   </Point>
</Placemark>
<Placemark>  <name> UKBB </name>
  <Point>
    <coordinates>
    30.893333333333334,50.344722222222224
    </coordinates>
   </Point>
</Placemark>
<Placemark>  <name> UKKK </name>
  <Point>
    <coordinates>
    30.451944444444443,50.401944444444446
    </coordinates>
   </Point>
</Placemark>
<Placemark>  <name> ULLI </name>
  <Point>
    <coordinates>
    30.2625,59.80027777777777
    </coordinates>
   </Point>
</Placemark>
<Placemark>  <name> URKK </name>
  <Point>
    <coordinates>
    39.169999999999995,45.03472222222222
    </coordinates>
   </Point>
</Placemark>
<Placemark>  <name> UUDD </name>
  <Point>
    <coordinates>
    37.906388888888884,55.40861111111111
    </coordinates>
   </Point>
</Placemark>
<Placemark>  <name> UUEE </name>
  <Point>
    <coordinates>
    37.41305555555555,55.972500000000004
    </coordinates>
   </Point>
</Placemark>
<Placemark>  <name> UWKD </name>
  <Point>
    <coordinates>
    49.280277777777776,55.606944444444444
    </coordinates>
   </Point>
</Placemark>
<Placemark>  <name> WSSS </name>
  <Point>
    <coordinates>
    103.98916666666666,1.3591666666666669
    </coordinates>
   </Point>
</Placemark>
</Document>
</kml>
